ONEWEB-0444             
1 51638U 22012S   24084.28516001  .00000087  00000+0  21233-3 0  9999
2 51638  87.8990 198.1955 0001622  98.6949 261.4362 13.10376717102610
ONEWEB-0445             
1 51639U 22012T   24084.30629573  .00000704  00000+0  19809-2 0  9993
2 51639  87.8978 198.1673 0002041 111.6331 248.5014 13.10372684102621
ONEWEB-0446             
1 51640U 22012U   24084.35989824  .00000042  00000+0  85463-4 0  9994
2 51640  87.8994 198.1735 0001962 115.8999 244.2331 13.10379513102619
ONEWEB-0448             
1 51641U 22012V   24084.36476980  .00000225  00000+0  60970-3 0  9998
2 51641  87.8994 198.1734 0001707  98.5841 261.5480 13.10376786102581
ONEWEB-0449             
1 51642U 22012W   24084.29329514  .00000455  00000+0  12658-2 0  9995
2 51642  87.8987 198.1871 0002069 101.8400 258.2959 13.10375376102585
ONEWEB-0451             
1 51643U 22012X   24084.48915262  .00000110  00000+0  25047-3 0  9993
2 51643  87.9246 167.9447 0001975  98.9614 261.1741 13.17649862106370
ONEWEB-0452             
1 51644U 22012Y   24084.48757213  .00000063  00000+0  12852-3 0  9991
2 51644  87.9251 167.9802 0002248  95.6936 264.4452 13.17648016106383
ONEWEB-0455             
1 51645U 22012Z   24084.57373047  .00000833  00000+0  36385-3 0  9993
2 51645  87.5334 141.8031 0014765 260.1819  99.7705 14.22764894110276
